[{"OBJECT_NAME":"STARLINK-6181","OBJECT_ID":"2023-083N","EPOCH":"2026-03-09T10:26:03.416064","MEAN_MOTION":15.02525708,"ECCENTRICITY":0.00014983,"INCLINATION":43.0047,"RA_OF_ASC_NODE":83.0246,"ARG_OF_PERICENTER":277.4527,"MEAN_ANOMALY":82.6145,"EPHEMERIS_TYPE":0,"CLASSIFICATION_TYPE":"U","NORAD_CAT_ID":56888,"ELEMENT_SET_NO":999,"REV_AT_EPOCH":15163,"BSTAR":-9.7296208e-5,"MEAN_MOTION_DOT":-1.517e-5,"MEAN_MOTION_DDOT":0},{"OBJECT_NAME":"NOAA 16 DEB","OBJECT_ID":"2000-055BZ","EPOCH":"2026-03-09T09:57:46.840608","MEAN_MOTION":15.04968987,"ECCENTRICITY":0.00133628,"INCLINATION":98.8453,"RA_OF_ASC_NODE":286.076,"ARG_OF_PERICENTER":194.204,"MEAN_ANOMALY":165.8809,"EPHEMERIS_TYPE":0,"CLASSIFICATION_TYPE":"U","NORAD_CAT_ID":41142,"ELEMENT_SET_NO":999,"REV_AT_EPOCH":53866,"BSTAR":0.0051237154,"MEAN_MOTION_DOT":0.00073426,"MEAN_MOTION_DDOT":0}]
